CCSDS_OMM_VERS,COMMENT,CREATION_DATE,ORIGINATOR,OBJECT_NAME,OBJECT_ID,CENTER_NAME,REF_FRAME,TIME_SYSTEM,MEAN_ELEMENT_THEORY,EPOCH,MEAN_MOTION,ECCENTRICITY,INCLINATION,RA_OF_ASC_NODE,ARG_OF_PERICENTER,MEAN_ANOMALY,EPHEMERIS_TYPE,CLASSIFICATION_TYPE,NORAD_CAT_ID,ELEMENT_SET_NO,REV_AT_EPOCH,BSTAR,MEAN_MOTION_DOT,MEAN_MOTION_DDOT,SEMIMAJOR_AXIS,PERIOD,APOAPSIS,PERIAPSIS,OBJECT_TYPE,RCS_SIZE,COUNTRY_CODE,LAUNCH_DATE,SITE,DECAY_DATE,FILE,GP_ID,TLE_LINE0,TLE_LINE1,TLE_LINE2
"2.0","GENERATED VIA SPACE-TRACK.ORG API","2023-01-02T17:42:09","18 SPCS","ATLAS 5 CENTAUR DEB","2014-055V","EARTH","TEME","UTC","SGP4","2023-01-01T18:08:54.951648","1.83004467","0.49951810","20.8063","259.9761","319.3365","12.6208","0","U","43966","999","2894","0.00000000000000","-0.00000057","0.0000000000000","28233.240","786.866","35958.119","7752.090","DEBRIS","SMALL","US","2014-09-17","AFETR","","3729583","222025968","0 ATLAS 5 CENTAUR DEB","1 43966U 14055V   23001.75619157 -.00000057  00000-0  00000-0 0  9993","2 43966  20.8063 259.9761 4995181 319.3365  12.6208  1.83004467 28940"
"2.0","GENERATED VIA SPACE-TRACK.ORG API","2023-01-03T02:40:54","18 SPCS","ATLAS 5 CENTAUR DEB","2014-055X","EARTH","TEME","UTC","SGP4","2023-01-02T06:50:42.974304","1.83134080","0.50213370","20.8252","259.6543","320.5252","12.1207","0","U","43968","999","2896","0.00000000000000","-0.00000050","0.0000000000000","28219.917","786.309","36011.953","7671.611","DEBRIS","SMALL","US","2014-09-17","AFETR","","3729873","222058512","0 ATLAS 5 CENTAUR DEB","1 43968U 14055X   23002.28521961 -.00000050  00000-0  00000-0 0  9992","2 43968  20.8252 259.6543 5021337 320.5252  12.1207  1.83134080 28961"
"2.0","GENERATED VIA SPACE-TRACK.ORG API","2023-01-04T03:14:03","18 SPCS","ATLAS 5 CENTAUR DEB","2014-055X","EARTH","TEME","UTC","SGP4","2023-01-02T19:56:58.538976","1.83134263","0.50213470","20.8245","259.6027","320.6193","12.0963","0","U","43968","999","2897","0.00000000000000","-0.00000043","0.0000000000000","28219.898","786.308","36011.953","7671.573","DEBRIS","SMALL","US","2014-09-17","AFETR","","3730926","222107818","0 ATLAS 5 CENTAUR DEB","1 43968U 14055X   23002.83123309 -.00000043  00000-0  00000-0 0  9999","2 43968  20.8245 259.6027 5021347 320.6193  12.0963  1.83134263 28978"
"2.0","GENERATED VIA SPACE-TRACK.ORG API","2023-01-02T17:42:09","18 SPCS","ATLAS 5 CENTAUR DEB","2014-055X","EARTH","TEME","UTC","SGP4","2023-01-01T17:44:27.045888","1.83134026","0.50213860","20.8260","259.7053","320.4315","12.1449","0","U","43968","999","2895","0.00000000000000","-0.00000059","0.0000000000000","28219.922","786.309","36012.099","7671.475","DEBRIS","SMALL","US","2014-09-17","AFETR","","3729583","222026460","0 ATLAS 5 CENTAUR DEB","1 43968U 14055X   23001.73920192 -.00000059  00000-0  00000-0 0  9999","2 43968  20.8260 259.7053 5021386 320.4315  12.1449  1.83134026 28957"
"2.0","GENERATED VIA SPACE-TRACK.ORG API","2023-01-02T02:38:49","18 SPCS","ATLAS 5 CENTAUR DEB","2014-055Z","EARTH","TEME","UTC","SGP4","2023-01-01T12:19:05.643264","1.90355481","0.47723150","20.9411","256.7483","329.1996","10.0361","0","U","43970","999","3013","0.00000000000000","-0.00000066","0.0000000000000","27501.618","756.479","34248.122","7998.845","DEBRIS","SMALL","US","2014-09-17","AFETR","","3728952","221984167","0 ATLAS 5 CENTAUR DEB","1 43970U 14055Z   23001.51325976 -.00000066  00000-0  00000-0 0  9995","2 43970  20.9411 256.7483 4772315 329.1996  10.0361  1.90355481 30139"
"2.0","GENERATED VIA SPACE-TRACK.ORG API","2023-01-04T03:14:03","18 SPCS","ATLAS 5 CENTAUR DEB","2014-055AB","EARTH","TEME","UTC","SGP4","2023-01-02T21:45:32.603904","1.85393995","0.47315200","20.9148","265.5632","310.4468","17.1352","0","U","43972","999","2933","0.00000000000000","-0.00000043","0.0000000000000","27990.118","776.724","34855.564","8368.403","DEBRIS","MEDIUM","US","2014-09-17","AFETR","","3730926","222108319","0 ATLAS 5 CENTAUR DEB","1 43972U 14055AB  23002.90662736 -.00000043  00000-0  00000-0 0  9994","2 43972  20.9148 265.5632 4731520 310.4468  17.1352  1.85393995 29336"
"2.0","GENERATED VIA SPACE-TRACK.ORG API","2023-01-03T02:40:54","18 SPCS","ATLAS 5 CENTAUR DEB","2014-055AC","EARTH","TEME","UTC","SGP4","2023-01-02T12:13:47.717184","1.92508932","0.50517240","21.0229","248.5549","349.0579","3.2693","0","U","43973","999","3056","0.00000000000000","-0.00000045","0.0000000000000","27296.141","748.017","34707.263","7128.749","DEBRIS","SMALL","US","2014-09-17","AFETR","","3729873","222059262","0 ATLAS 5 CENTAUR DEB","1 43973U 14055AC  23002.50958006 -.00000045  00000-0  00000-0 0  9991","2 43973  21.0229 248.5549 5051724 349.0579   3.2693  1.92508932 30568"
"2.0","GENERATED VIA SPACE-TRACK.ORG API","2023-01-02T02:38:49","18 SPCS","ATLAS 5 CENTAUR DEB","2014-055AC","EARTH","TEME","UTC","SGP4","2023-01-01T11:17:50.123328","1.92509966","0.50517310","21.0261","248.6638","348.8547","3.3156","0","U","43973","999","3054","0.00000000000000","-0.00000021","0.0000000000000","27296.043","748.013","34707.135","7128.681","DEBRIS","SMALL","US","2014-09-17","AFETR","","3728952","221985419","0 ATLAS 5 CENTAUR DEB","1 43973U 14055AC  23001.47071902 -.00000021  00000-0  00000-0 0  9991","2 43973  21.0261 248.6638 5051731 348.8547   3.3156  1.92509966 30545"
"2.0","GENERATED VIA SPACE-TRACK.ORG API","2023-01-02T02:38:49","18 SPCS","ATLAS 5 CENTAUR DEB","2014-055AF","EARTH","TEME","UTC","SGP4","2023-01-01T08:25:06.871008","1.83495006","0.47012600","20.8838","267.8215","303.7598","20.0683","0","U","43976","999","2902","0.00000000000000","-0.00000058","0.0000000000000","28182.900","784.763","35054.279","8555.251","DEBRIS","SMALL","US","2014-09-17","AFETR","","3728952","221984670","0 ATLAS 5 CENTAUR DEB","1 43976U 14055AF  23001.35077397 -.00000058  00000-0  00000-0 0  9995","2 43976  20.8838 267.8215 4701260 303.7598  20.0683  1.83495006 29024"
"2.0","GENERATED VIA SPACE-TRACK.ORG API","2023-01-01T17:55:23","18 SPCS","ATLAS 5 CENTAUR DEB","2014-055AK","EARTH","TEME","UTC","SGP4","2023-01-01T00:46:38.439840","1.83783168","0.47081120","20.8812","266.5374","305.7197","19.1869","0","U","43980","999","2896","0.00000000000000","-0.00000063","0.0000000000000","28153.433","783.532","35030.249","8520.346","DEBRIS","MEDIUM","US","2014-09-17","AFETR","","3728759","221927309","0 ATLAS 5 CENTAUR DEB","1 43980U 14055AK  23001.03238935 -.00000063  00000-0  00000-0 0  9998","2 43980  20.8812 266.5374 4708112 305.7197  19.1869  1.83783168 28969"
"2.0","GENERATED VIA SPACE-TRACK.ORG API","2023-01-04T03:14:03","18 SPCS","ATLAS 5 CENTAUR DEB","2014-055AK","EARTH","TEME","UTC","SGP4","2023-01-02T15:57:05.300352","1.83782927","0.47079440","20.8795","266.3935","305.9824","19.0969","0","U","43980","999","2899","0.00000000000000","-0.00000042","0.0000000000000","28153.457","783.533","35029.812","8520.832","DEBRIS","MEDIUM","US","2014-09-17","AFETR","","3730926","222108320","0 ATLAS 5 CENTAUR DEB","1 43980U 14055AK  23002.66464468 -.00000042  00000-0  00000-0 0  9997","2 43980  20.8795 266.3935 4707944 305.9824  19.0969  1.83782927 28996"
"2.0","GENERATED VIA SPACE-TRACK.ORG API","2023-01-04T03:14:03","18 SPCS","ATLAS 5 CENTAUR DEB","2014-055AL","EARTH","TEME","UTC","SGP4","2023-01-02T17:54:37.723680","1.78796923","0.50627760","20.7408","262.2823","311.1846","15.2017","0","U","43981","999","2822","0.00000000000000","-0.00000044","0.0000000000000","28674.453","805.383","36813.552","7779.085","DEBRIS","SMALL","US","2014-09-17","AFETR","","3730926","222108069","0 ATLAS 5 CENTAUR DEB","1 43981U 14055AL  23002.74626995 -.00000044  00000-0  00000-0 0  9994","2 43981  20.7408 262.2823 5062776 311.1846  15.2017  1.78796923 28222"
"2.0","GENERATED VIA SPACE-TRACK.ORG API","2023-01-03T02:40:54","18 SPCS","ATLAS 5 CENTAUR DEB","2014-055AL","EARTH","TEME","UTC","SGP4","2023-01-02T04:29:17.843712","1.78796853","0.50627660","20.7414","262.3328","311.0929","15.2273","0","U","43981","999","2821","0.00000000000000","-0.00000048","0.0000000000000","28674.461","805.383","36813.534","7779.117","DEBRIS","SMALL","US","2014-09-17","AFETR","","3729873","222059263","0 ATLAS 5 CENTAUR DEB","1 43981U 14055AL  23002.18701208 -.00000048  00000-0  00000-0 0  9997","2 43981  20.7414 262.3328 5062766 311.0929  15.2273  1.78796853 28215"
"2.0","GENERATED VIA SPACE-TRACK.ORG API","2023-01-02T17:42:09","18 SPCS","ATLAS 5 CENTAUR DEB","2014-055AN","EARTH","TEME","UTC","SGP4","2023-01-02T05:22:27.963264","1.90080644","0.48992740","20.8434","249.4654","339.5485","6.3498","0","U","43983","999","3000","0.00000000000000","-0.00000051","0.0000000000000","27528.122","757.573","34636.768","7663.206","DEBRIS","SMALL","US","2014-09-17","AFETR","","3729583","222026722","0 ATLAS 5 CENTAUR DEB","1 43983U 14055AN  23002.22393476 -.00000051  00000-0  00000-0 0  9992","2 43983  20.8434 249.4654 4899274 339.5485   6.3498  1.90080644 30009"
"2.0","GENERATED VIA SPACE-TRACK.ORG API","2023-01-04T03:14:03","18 SPCS","ATLAS 5 CENTAUR DEB","2014-055AN","EARTH","TEME","UTC","SGP4","2023-01-02T17:59:59.896320","1.90080638","0.48993430","20.8425","249.4133","339.6429","6.3267","0","U","43983","999","3001","0.00000000000000","-0.00000044","0.0000000000000","27528.122","757.573","34636.958","7663.016","DEBRIS","SMALL","US","2014-09-17","AFETR","","3730926","222107069","0 ATLAS 5 CENTAUR DEB","1 43983U 14055AN  23002.74999880 -.00000044  00000-0  00000-0 0  9992","2 43983  20.8425 249.4133 4899343 339.6429   6.3267  1.90080638 30015"
"2.0","GENERATED VIA SPACE-TRACK.ORG API","2023-01-01T17:55:23","18 SPCS","ATLAS 5 CENTAUR DEB","2014-055AN","EARTH","TEME","UTC","SGP4","2023-01-01T04:07:24.137760","1.90080614","0.48991820","20.8451","249.5694","339.3592","6.3971","0","U","43983","999","2998","0.00000000000000","-0.00000068","0.0000000000000","27528.125","757.573","34636.519","7663.460","DEBRIS","SMALL","US","2014-09-17","AFETR","","3728759","221926559","0 ATLAS 5 CENTAUR DEB","1 43983U 14055AN  23001.17180715 -.00000068  00000-0  00000-0 0  9993","2 43983  20.8451 249.5694 4899182 339.3592   6.3971  1.90080614 29986"
